{
  "type": "FeatureCollection",
  "features": [
    {
      "type": "Feature",
      "properties": {
        "norad_id": 29954,
        "name": "FENGYUN 1C DEB",
        "group": "fengyun-1c-debris",
        "lat": -12.172649429510553,
        "lon": -161.53363170913087,
        "alt_km": 778.908476788758,
        "timestamp": "2025-12-09T04:51:47.765942+00:00",
        "meta_object_name": "FENGYUN 1C DEB",
        "meta_object_id": "1999-025KC",
        "meta_epoch": "2025-12-08T14:34:02.277984",
        "meta_mean_motion": 14.34198584,
        "meta_eccentricity": 0.0074219,
        "meta_inclination": 100.1505,
        "meta_ra_of_asc_node": 19.9828,
        "meta_arg_of_pericenter": 280.9689,
        "meta_mean_anomaly": 78.3148,
        "meta_ephemeris_type": 0,
        "meta_classification_type": "U",
        "meta_norad_cat_id": 29954,
        "meta_element_set_no": 999,
        "meta_rev_at_epoch": 98128,
        "meta_bstar": 0.0011623,
        "meta_mean_motion_dot": 3.303e-05,
        "meta_mean_motion_ddot": 0,
        "tle_line1": "1 29954U 99025KC  25342.60697081  .00003303  00000+0  11623-2 0  9990",
        "tle_line2": "2 29954 100.1505  19.9828 0074219 280.9689  78.3148 14.34198584981281"
      },
      "geometry": {
        "type": "Point",
        "coordinates": [
          -161.53363170913087,
          -12.172649429510553
        ]
      }
    },
    {
      "type": "Feature",
      "properties": {
        "norad_id": 29955,
        "name": "FENGYUN 1C DEB",
        "group": "fengyun-1c-debris",
        "lat": -54.08687698593469,
        "lon": -129.4482324585556,
        "alt_km": 766.6182823650488,
        "timestamp": "2025-12-09T04:51:47.765953+00:00",
        "meta_object_name": "FENGYUN 1C DEB",
        "meta_object_id": "1999-025KD",
        "meta_epoch": "2025-12-08T11:08:40.095744",
        "meta_mean_motion": 14.38182221,
        "meta_eccentricity": 0.00073402,
        "meta_inclination": 99.274,
        "meta_ra_of_asc_node": 62.7943,
        "meta_arg_of_pericenter": 260.3648,
        "meta_mean_anomaly": 114.4558,
        "meta_ephemeris_type": 0,
        "meta_classification_type": "U",
        "meta_norad_cat_id": 29955,
        "meta_element_set_no": 999,
        "meta_rev_at_epoch": 98000,
        "meta_bstar": 0.0021789854,
        "meta_mean_motion_dot": 6.572e-05,
        "meta_mean_motion_ddot": 0,
        "tle_line1": "1 29955U 99025KD  25342.46435296  .00006572  00000+0  21790-2 0  9990",
        "tle_line2": "2 29955  99.2740  62.7943 0007340 260.3648 114.4558 14.38182221980004"
      },
      "geometry": {
        "type": "Point",
        "coordinates": [
          -129.4482324585556,
          -54.08687698593469
        ]
      }
    },
    {
      "type": "Feature",
      "properties": {
        "norad_id": 29956,
        "name": "FENGYUN 1C DEB",
        "group": "fengyun-1c-debris",
        "lat": -13.942025596292764,
        "lon": 14.361874515286969,
        "alt_km": 847.605269507254,
        "timestamp": "2025-12-09T04:51:47.765963+00:00",
        "meta_object_name": "FENGYUN 1C DEB",
        "meta_object_id": "1999-025KE",
        "meta_epoch": "2025-12-08T15:48:10.866240",
        "meta_mean_motion": 14.06170459,
        "meta_eccentricity": 0.0053933,
        "meta_inclination": 98.7922,
        "meta_ra_of_asc_node": 11.6316,
        "meta_arg_of_pericenter": 28.9562,
        "meta_mean_anomaly": 84.2441,
        "meta_ephemeris_type": 0,
        "meta_classification_type": "U",
        "meta_norad_cat_id": 29956,
        "meta_element_set_no": 999,
        "meta_rev_at_epoch": 96992,
        "meta_bstar": 7.4908e-05,
        "meta_mean_motion_dot": 8.2e-07,
        "meta_mean_motion_ddot": 0,
        "tle_line1": "1 29956U 99025KE  25342.65845910  .00000082  00000+0  74908-4 0  9991",
        "tle_line2": "2 29956  98.7922  11.6316 0053933  28.9562  84.2441 14.06170459969928"
      },
      "geometry": {
        "type": "Point",
        "coordinates": [
          14.361874515286969,
          -13.942025596292764
        ]
      }
    },
    {
      "type": "Feature",
      "properties": {
        "norad_id": 29957,
        "name": "FENGYUN 1C DEB",
        "group": "fengyun-1c-debris",
        "lat": -9.287794885134858,
        "lon": -71.51267368082593,
        "alt_km": 699.448060426258,
        "timestamp": "2025-12-09T04:51:47.765973+00:00",
        "meta_object_name": "FENGYUN 1C DEB",
        "meta_object_id": "1999-025KF",
        "meta_epoch": "2025-12-08T20:19:19.295904",
        "meta_mean_motion": 14.50888966,
        "meta_eccentricity": 0.003847,
        "meta_inclination": 98.9212,
        "meta_ra_of_asc_node": 109.5822,
        "meta_arg_of_pericenter": 189.1531,
        "meta_mean_anomaly": 302.32,
        "meta_ephemeris_type": 0,
        "meta_classification_type": "U",
        "meta_norad_cat_id": 29957,
        "meta_element_set_no": 999,
        "meta_rev_at_epoch": 97435,
        "meta_bstar": 0.0069646,
        "meta_mean_motion_dot": 0.00027805,
        "meta_mean_motion_ddot": 0,
        "tle_line1": "1 29957U 99025KF  25342.84675111  .00027805  00000+0  69646-2 0  9990",
        "tle_line2": "2 29957  98.9212 109.5822 0038470 189.1531 302.3200 14.50888966974355"
      },
      "geometry": {
        "type": "Point",
        "coordinates": [
          -71.51267368082593,
          -9.287794885134858
        ]
      }
    },
    {
      "type": "Feature",
      "properties": {
        "norad_id": 29958,
        "name": "FENGYUN 1C DEB",
        "group": "fengyun-1c-debris",
        "lat": -27.00422852627489,
        "lon": 173.21435584493682,
        "alt_km": 878.2052366164044,
        "timestamp": "2025-12-09T04:51:47.765983+00:00",
        "meta_object_name": "FENGYUN 1C DEB",
        "meta_object_id": "1999-025KG",
        "meta_epoch": "2025-12-08T14:18:06.922080",
        "meta_mean_motion": 14.14449352,
        "meta_eccentricity": 0.0054557,
        "meta_inclination": 98.6686,
        "meta_ra_of_asc_node": 357.0845,
        "meta_arg_of_pericenter": 345.1764,
        "meta_mean_anomaly": 14.7807,
        "meta_ephemeris_type": 0,
        "meta_classification_type": "U",
        "meta_norad_cat_id": 29958,
        "meta_element_set_no": 999,
        "meta_rev_at_epoch": 97392,
        "meta_bstar": 0.00062172,
        "meta_mean_motion_dot": 1.165e-05,
        "meta_mean_motion_ddot": 0,
        "tle_line1": "1 29958U 99025KG  25342.59591345  .00001165  00000+0  62172-3 0  9998",
        "tle_line2": "2 29958  98.6686 357.0845 0054557 345.1764  14.7807 14.14449352973920"
      },
      "geometry": {
        "type": "Point",
        "coordinates": [
          173.21435584493682,
          -27.00422852627489
        ]
      }
    },
    {
      "type": "Feature",
      "properties": {
        "norad_id": 29959,
        "name": "FENGYUN 1C DEB",
        "group": "fengyun-1c-debris",
        "lat": -66.93142338999911,
        "lon": 35.31460031288899,
        "alt_km": 859.3591945473199,
        "timestamp": "2025-12-09T04:51:47.765993+00:00",
        "meta_object_name": "FENGYUN 1C DEB",
        "meta_object_id": "1999-025KH",
        "meta_epoch": "2025-12-08T16:07:38.951040",
        "meta_mean_motion": 14.06013266,
        "meta_eccentricity": 0.0041814,
        "meta_inclination": 98.8086,
        "meta_ra_of_asc_node": 13.4473,
        "meta_arg_of_pericenter": 339.5549,
        "meta_mean_anomaly": 147.7303,
        "meta_ephemeris_type": 0,
        "meta_classification_type": "U",
        "meta_norad_cat_id": 29959,
        "meta_element_set_no": 999,
        "meta_rev_at_epoch": 96883,
        "meta_bstar": 0.00028043,
        "meta_mean_motion_dot": 4.2e-06,
        "meta_mean_motion_ddot": 0,
        "tle_line1": "1 29959U 99025KH  25342.67197860  .00000420  00000+0  28043-3 0  9994",
        "tle_line2": "2 29959  98.8086  13.4473 0041814 339.5549 147.7303 14.06013266968831"
      },
      "geometry": {
        "type": "Point",
        "coordinates": [
          35.31460031288899,
          -66.93142338999911
        ]
      }
    },
    {
      "type": "Feature",
      "properties": {
        "norad_id": 29960,
        "name": "FENGYUN 1C DEB",
        "group": "fengyun-1c-debris",
        "lat": -53.271707501648564,
        "lon": 137.16534113784815,
        "alt_km": 813.6652457406344,
        "timestamp": "2025-12-09T04:51:47.766003+00:00",
        "meta_object_name": "FENGYUN 1C DEB",
        "meta_object_id": "1999-025KJ",
        "meta_epoch": "2025-12-08T11:25:09.668640",
        "meta_mean_motion": 14.16390725,
        "meta_eccentricity": 0.00911031,
        "meta_inclination": 98.614,
        "meta_ra_of_asc_node": 328.1834,
        "meta_arg_of_pericenter": 298.6339,
        "meta_mean_anomaly": 192.3462,
        "meta_ephemeris_type": 0,
        "meta_classification_type": "U",
        "meta_norad_cat_id": 29960,
        "meta_element_set_no": 999,
        "meta_rev_at_epoch": 97394,
        "meta_bstar": 0.00087932252,
        "meta_mean_motion_dot": 1.776e-05,
        "meta_mean_motion_ddot": 0,
        "tle_line1": "1 29960U 99025KJ  25342.47580635  .00001776  00000+0  87932-3 0  9997",
        "tle_line2": "2 29960  98.6140 328.1834 0091103 298.6339 192.3462 14.16390725973946"
      },
      "geometry": {
        "type": "Point",
        "coordinates": [
          137.16534113784815,
          -53.271707501648564
        ]
      }
    }
  ]
}